{
 "type": "FeatureCollection",
 "bbox": [
  199594.55534833824,
  544570.0175669673,
  200232.8078160385,
  545003.7614336887
 ],
 "features": [
  {
   "type": "Feature",
   "geometry": {
    "type": "MultiPolygon",
    "coordinates": [
     [
      [
       [
        199594.55534833824,
        544825.1861764026
       ],
       [
        199646.58463197708,
        544843.4368653523
       ],
       [
        199639.05434564748,
        544865.0065676583
       ],
       [
        199645.55427677152,
        544866.0066641951
       ],
       [
        199663.48402972432,
        544872.3069015297
       ],
       [
        199681.43378348605,
        544878.5471396841
       ],
       [
        199688.3936536846,
        544883.0972146078
       ],
       [
        199703.76344240463,
        544888.467418315
       ],
       [
        199754.4427456823,
        544906.1780900016
       ],
       [
        199911.0305169261,
        544965.6201269501
       ],
       [
        200011.47908703925,
        545003.7614336887
       ],
       [
        200023.76951302527,
        544971.1318985114
       ],
       [
        200069.48886447452,
        544988.3524944587
       ],
       [
        200102.9194848203,
        544933.013485575
       ],
       [
        200132.82895091388,
        544951.0838198337
       ],
       [
        200137.2290328297,
        544943.783950415
       ],
       [
        200223.2306371392,
        544800.9065041454
       ],
       [
        200232.8078160385,
        544784.9807886353
       ],
       [
        199945.02644534828,
        544642.5823154907
       ],
       [
        199885.3632967011,
        544806.0110183057
       ],
       [
        199778.00477638553,
        544768.2495973392
       ],
       [
        199791.65529593214,
        544729.120137156
       ],
       [
        199757.7357759806,
        544716.4096946081
       ],
       [
        199800.9074209391,
        544592.5414026846
       ],
       [
        199802.80749813953,
        544586.7914802914
       ],
       [
        199806.34767607716,
        544573.9616421913
       ],
       [
        199799.67679374202,
        544570.0175669673
       ],
       [
        199794.3175256416,
        544589.3613225137
       ],
       [
        199735.4852821165,
        544758.2789938466
       ],
       [
        199728.1453830927,
        544755.7088966115
       ],
       [
        199627.26677362146,
        544720.2175616623
       ],
       [
        199621.77660717693,
        544733.3173661105
       ],
       [
        199594.55534833824,
        544825.1861764026
       ]
      ]
     ]
    ]
   },
   "properties": {
    "gosi_year": "2025",
    "pnu": "1165010700100180001",
    "jibun": "18-1 대",
    "bonbun": "18",
    "bubun": "1",
    "addr": "서울특별시 서초구 반포동 18-1",
    "gosi_month": "01",
    "jiga": "27700000"
   },
   "id": "LP_PA_CBND_BUBUN.787847"
  }
 ],
 "crs": {
  "type": "name",
  "properties": {
   "name": "EPSG:5186"
  }
 }
}