{"type": "FeatureCollection", "features": [{"type": "Feature", "properties": {"jibun": "18-1", "pnu": "1165010700100180001"}, "geometry": {"type": "Polygon", "coordinates": [[[126.9954146648936, 37.50289266619831], [126.99600307602488, 37.50305712731484], [126.99591790224896, 37.503251468637025], [126.99599141242966, 37.503260482080435], [126.99619418526248, 37.50331725427984], [126.99639718462694, 37.503373485541545], [126.99647589514973, 37.50341448434603], [126.99664971726153, 37.50346287523976], [126.99722286814205, 37.503622464245254], [126.9989937916857, 37.5041580686442], [127.00012982435511, 37.50450172811558], [127.00026882360842, 37.504207733987826], [127.00078589266552, 37.50436289019087], [127.00116397254388, 37.50386427955913], [127.00150223825838, 37.504027090451146], [127.00155199992932, 37.503961317581854], [127.00252459685356, 37.50267396698295], [127.00263290363081, 37.502530473009855], [126.99937829580853, 37.50124748216175], [126.99870353083351, 37.50271997880983], [126.99748938474188, 37.50237972667665], [126.99764377392906, 37.502027171156016], [126.99726017317641, 37.501912641054375], [126.99774844564125, 37.500796590729635], [126.99776993531141, 37.50074478399111], [126.99780997482353, 37.5006291871266], [126.99773453450841, 37.50059364934829], [126.99767392086197, 37.50076793657241], [126.99700852171453, 37.50228987976565], [126.99692551348902, 37.50226672090988], [126.9957846646059, 37.50194690672186], [126.9957225681762, 37.50206493448989], [126.9954146648936, 37.50289266619831]]]}}, {"type": "Feature", "properties": {"jibun": "18-2", "pnu": "1165010700100180002"}, "geometry": {"type": "Polygon", "coordinates": [[[126.99404275047263, 37.502716442199514], [126.9943781749247, 37.50280881527256], [126.99438688279832, 37.50281178909292], [126.99439909630601, 37.50281737601899], [126.99447090695259, 37.50285333015659], [126.99461091289967, 37.50288802685866], [126.99507594038177, 37.50301815728136], [126.99526371704837, 37.50251613109754], [126.99529527731545, 37.502426213125474], [126.99545375400369, 37.50200212140875], [126.99541270670278, 37.501940761300204], [126.99533818114475, 37.50191859286408], [126.99527417283866, 37.50190011903072], [126.99521186120988, 37.50187840165872], [126.99518110133975, 37.50186623653382], [126.9951514724711, 37.50185317046336], [126.99512240915465, 37.50183911331769], [126.99509368519287, 37.501824245284666], [126.99506586604376, 37.50180856639544], [126.99503895169973, 37.5017921667504], [126.99498704578842, 37.50175720515174], [126.99496216731302, 37.5017386432052], [126.99493875911581, 37.50171918033675], [126.99491557717677, 37.501698996677426], [126.99489375236888, 37.50167854279003], [126.99485767946537, 37.5016425008222], [126.99468827320209, 37.50159499952083], [126.99454271743136, 37.501554184795495], [126.99404275047263, 37.502716442199514]]]}}]}