{
 "type": "FeatureCollection",
 "bbox": [
  126.9954146648936,
  37.50059364934829,
  127.00263290363081,
  37.50450172811558
 ],
 "features": [
  {
   "type": "Feature",
   "geometry": {
    "type": "MultiPolygon",
    "coordinates": [
     [
      [
       [
        126.9954146648936,
        37.50289266619831
       ],
       [
        126.99600307602488,
        37.50305712731484
       ],
       [
        126.99591790224896,
        37.503251468637025
       ],
       [
        126.99599141242966,
        37.503260482080435
       ],
       [
        126.99619418526248,
        37.50331725427984
       ],
       [
        126.99639718462694,
        37.503373485541545
       ],
       [
        126.99647589514973,
        37.50341448434603
       ],
       [
        126.99664971726153,
        37.50346287523976
       ],
       [
        126.99722286814205,
        37.503622464245254
       ],
       [
        126.9989937916857,
        37.5041580686442
       ],
       [
        127.00012982435511,
        37.50450172811558
       ],
       [
        127.00026882360842,
        37.504207733987826
       ],
       [
        127.00078589266552,
        37.50436289019087
       ],
       [
        127.00116397254388,
        37.50386427955913
       ],
       [
        127.00150223825838,
        37.504027090451146
       ],
       [
        127.00155199992932,
        37.503961317581854
       ],
       [
        127.00252459685356,
        37.50267396698295
       ],
       [
        127.00263290363081,
        37.502530473009855
       ],
       [
        126.99937829580853,
        37.50124748216175
       ],
       [
        126.99870353083351,
        37.50271997880983
       ],
       [
        126.99748938474188,
        37.50237972667665
       ],
       [
        126.99764377392906,
        37.502027171156016
       ],
       [
        126.99726017317641,
        37.501912641054375
       ],
       [
        126.99774844564125,
        37.500796590729635
       ],
       [
        126.99776993531141,
        37.50074478399111
       ],
       [
        126.99780997482353,
        37.5006291871266
       ],
       [
        126.99773453450841,
        37.50059364934829
       ],
       [
        126.99767392086197,
        37.50076793657241
       ],
       [
        126.99700852171453,
        37.50228987976565
       ],
       [
        126.99692551348902,
        37.50226672090988
       ],
       [
        126.9957846646059,
        37.50194690672186
       ],
       [
        126.9957225681762,
        37.50206493448989
       ],
       [
        126.9954146648936,
        37.50289266619831
       ]
      ]
     ]
    ]
   },
   "properties": {
    "gosi_year": "2025",
    "pnu": "1165010700100180001",
    "jibun": "18-1 대",
    "bonbun": "18",
    "bubun": "1",
    "addr": "서울특별시 서초구 반포동 18-1",
    "gosi_month": "01",
    "jiga": "27700000"
   },
   "id": "LP_PA_CBND_BUBUN.787847"
  }
 ],
 "crs": {
  "type": "name",
  "properties": {
   "name": "EPSG:4326"
  }
 }
}