{"type": "FeatureCollection", "features": [{"type": "Feature", "properties": {"id": 278615326, "name": "114동", "levels": "31"}, "geometry": {"type": "Polygon", "coordinates": [[[126.9997206, 37.5033044], [127.0001039, 37.5031882], [127.0001611, 37.5033069], [127.000042, 37.503343], [127.0000947, 37.5034524], [126.9999719, 37.5034896], [126.9999228, 37.5033876], [126.9997813, 37.5034305], [126.9997206, 37.5033044]]]}}, {"type": "Feature", "properties": {"id": 278615335, "name": "113동", "levels": "31"}, "geometry": {"type": "Polygon", "coordinates": [[[126.9988939, 37.503046], [126.9992872, 37.5028716], [126.9993706, 37.50299], [126.9992247, 37.5030547], [126.9993389, 37.5032168], [126.9992285, 37.5032658], [126.9991093, 37.5030967], [126.9989724, 37.5031574], [126.9988939, 37.503046]]]}}, {"type": "Feature", "properties": {"id": 412953590, "name": "127동", "levels": "29"}, "geometry": {"type": "Polygon", "coordinates": [[[126.9946265, 37.50185], [126.9949082, 37.5019162], [126.9948728, 37.5020111], [126.9947646, 37.5019857], [126.9947502, 37.5020244], [126.9946716, 37.5020059], [126.9946851, 37.5019698], [126.9945902, 37.5019474], [126.9946265, 37.50185]]]}}, {"type": "Feature", "properties": {"id": 412953591, "name": "126동", "levels": "23"}, "geometry": {"type": "Polygon", "coordinates": [[[126.9943413, 37.5025143], [126.994623, 37.5025805], [126.9945876, 37.5026754], [126.9944794, 37.50265], [126.994465, 37.5026887], [126.9943864, 37.5026702], [126.9943999, 37.502634], [126.994305, 37.5026117], [126.9943413, 37.5025143]]]}}, {"type": "Feature", "properties": {"id": 412953592, "name": "128동", "levels": "31"}, "geometry": {"type": "Polygon", "coordinates": [[[126.9949922, 37.5020221], [126.9951904, 37.5019038], [126.9953605, 37.5020833], [126.9952866, 37.5021274], [126.9952103, 37.5020468], [126.9951539, 37.5020805], [126.9951189, 37.5020435], [126.9950509, 37.502084], [126.9949922, 37.5020221]]]}}, {"type": "Feature", "properties": {"id": 412953593, "name": "125동", "levels": "29"}, "geometry": {"type": "Polygon", "coordinates": [[[126.9947637, 37.5026941], [126.99481, 37.5026572], [126.9947703, 37.5026259], [126.9948456, 37.5025659], [126.9949074, 37.5026148], [126.9949579, 37.5025745], [126.9950146, 37.5026193], [126.9949715, 37.5026536], [126.9950541, 37.5027188], [126.9949721, 37.5027841], [126.9948788, 37.5027104], [126.9948317, 37.5027478], [126.9947637, 37.5026941]]]}}, {"type": "Feature", "properties": {"id": 412953644, "name": "112동", "levels": "31"}, "geometry": {"type": "Polygon", "coordinates": [[[126.9981183, 37.5028625], [126.9984063, 37.5027166], [126.9984895, 37.50282], [126.9983912, 37.5028699], [126.9984817, 37.5029824], [126.9984009, 37.5030233], [126.9983072, 37.5029069], [126.9981984, 37.502962], [126.9981183, 37.5028625]]]}}, {"type": "Feature", "properties": {"id": 412953649, "name": "119동", "levels": "30"}, "geometry": {"type": "Polygon", "coordinates": [[[127.000577, 37.5028841], [127.0006362, 37.5029872], [127.0007708, 37.5029386], [127.0008868, 37.5031408], [127.001027, 37.5030901], [127.0009086, 37.5028839], [127.0010379, 37.5028372], [127.000981, 37.5027381], [127.000577, 37.5028841]]]}}, {"type": "Feature", "properties": {"id": 412953650, "name": "115동", "levels": "29"}, "geometry": {"type": "Polygon", "coordinates": [[[127.0005298, 37.5035352], [127.0009131, 37.503419], [127.0009703, 37.5035377], [127.0008512, 37.5035738], [127.0009039, 37.5036832], [127.0007811, 37.5037204], [127.000732, 37.5036184], [127.0005905, 37.5036613], [127.0005298, 37.5035352]]]}}, {"type": "Feature", "properties": {"id": 412953651, "name": "101동", "levels": "28"}, "geometry": {"type": "Polygon", "coordinates": [[[126.9957925, 37.5023689], [126.9960143, 37.5022451], [126.9961766, 37.5024282], [126.9960809, 37.5024816], [126.9960149, 37.5024072], [126.9959559, 37.5024401], [126.9959144, 37.5023932], [126.9958472, 37.5024306], [126.9957925, 37.5023689]]]}}, {"type": "Feature", "properties": {"id": 412953652, "name": "102동", "levels": "31"}, "geometry": {"type": "Polygon", "coordinates": [[[126.9963223, 37.5024971], [126.9965441, 37.5023733], [126.9967065, 37.5025564], [126.9966108, 37.5026098], [126.9965447, 37.5025354], [126.9964858, 37.5025683], [126.9964442, 37.5025214], [126.9963771, 37.5025588], [126.9963223, 37.5024971]]]}}, {"type": "Feature", "properties": {"id": 412970116, "name": "반포종합운동장 체육센터", "levels": ""}, "geometry": {"type": "Polygon", "coordinates": [[[126.9955664, 37.5001148], [126.9959605, 37.5002516], [126.9959864, 37.5002047], [126.9961927, 37.5002763], [126.9962823, 37.5001138], [126.9961261, 37.5000596], [126.9961015, 37.5001042], [126.9957434, 37.4999798], [126.9957015, 37.5000557], [126.9956634, 37.5000425], [126.9956441, 37.5000773], [126.9955963, 37.5000607], [126.9955664, 37.5001148]]]}}, {"type": "Feature", "properties": {"id": 412970131, "name": "103동", "levels": "26"}, "geometry": {"type": "Polygon", "coordinates": [[[126.9963224, 37.5032152], [126.9962753, 37.5031357], [126.9963649, 37.5031023], [126.9963243, 37.5030336], [126.9964418, 37.5029898], [126.9964891, 37.5030697], [126.9965801, 37.5030358], [126.9966308, 37.5031215], [126.9965797, 37.5031405], [126.9966268, 37.5032199], [126.9964919, 37.5032702], [126.9964346, 37.5031734], [126.9963224, 37.5032152]]]}}, {"type": "Feature", "properties": {"id": 412970133, "name": "104동", "levels": "30"}, "geometry": {"type": "Polygon", "coordinates": [[[126.9970486, 37.5033528], [126.9970015, 37.5032733], [126.9970912, 37.5032398], [126.9970505, 37.5031712], [126.997168, 37.5031274], [126.9972153, 37.5032072], [126.9973063, 37.5031733], [126.9973571, 37.503259], [126.997306, 37.5032781], [126.997353, 37.5033575], [126.9972182, 37.5034077], [126.9971608, 37.503311], [126.9970486, 37.5033528]]]}}, {"type": "Feature", "properties": {"id": 412970135, "name": "105동", "levels": "30"}, "geometry": {"type": "Polygon", "coordinates": [[[126.9976109, 37.5035248], [126.9975638, 37.5034453], [126.9976535, 37.5034118], [126.9976128, 37.5033432], [126.9977303, 37.5032994], [126.9977776, 37.5033792], [126.9978686, 37.5033453], [126.9979194, 37.503431], [126.9978683, 37.5034501], [126.9979153, 37.5035295], [126.9977804, 37.5035797], [126.9977231, 37.503483], [126.9976109, 37.5035248]]]}}, {"type": "Feature", "properties": {"id": 412970137, "name": "106동", "levels": "30"}, "geometry": {"type": "Polygon", "coordinates": [[[126.9980626, 37.5036689], [126.9980155, 37.5035893], [126.9981052, 37.5035559], [126.9980646, 37.5034873], [126.9981821, 37.5034435], [126.9982293, 37.5035233], [126.9983203, 37.5034894], [126.9983711, 37.5035751], [126.99832, 37.5035942], [126.998367, 37.5036736], [126.9982322, 37.5037238], [126.9981749, 37.5036271], [126.9980626, 37.5036689]]]}}, {"type": "Feature", "properties": {"id": 412970139, "name": "107동", "levels": "30"}, "geometry": {"type": "Polygon", "coordinates": [[[126.9985719, 37.5037217], [126.9987937, 37.5035979], [126.9989561, 37.503781], [126.9988604, 37.5038344], [126.9987943, 37.50376], [126.9987354, 37.5037929], [126.9986938, 37.503746], [126.9986267, 37.5037834], [126.9985719, 37.5037217]]]}}, {"type": "Feature", "properties": {"id": 412970141, "name": "108동", "levels": "31"}, "geometry": {"type": "Polygon", "coordinates": [[[126.9991086, 37.5038636], [126.9993304, 37.5037398], [126.9994928, 37.5039229], [126.9993971, 37.5039763], [126.999331, 37.5039019], [126.9992721, 37.5039348], [126.9992305, 37.5038879], [126.9991634, 37.5039253], [126.9991086, 37.5038636]]]}}, {"type": "Feature", "properties": {"id": 412970143, "name": "109동", "levels": "31"}, "geometry": {"type": "Polygon", "coordinates": [[[126.9996533, 37.5040152], [126.9998751, 37.5038914], [127.0000375, 37.5040745], [126.9999418, 37.5041279], [126.9998757, 37.5040535], [126.9998168, 37.5040864], [126.9997752, 37.5040395], [126.9997081, 37.5040769], [126.9996533, 37.5040152]]]}}, {"type": "Feature", "properties": {"id": 412970145, "name": "116동", "levels": "31"}, "geometry": {"type": "Polygon", "coordinates": [[[127.0013608, 37.5034927], [127.0015826, 37.5033689], [127.001745, 37.503552], [127.0016493, 37.5036054], [127.0015832, 37.503531], [127.0015243, 37.5035639], [127.0014827, 37.503517], [127.0014156, 37.5035544], [127.0013608, 37.5034927]]]}}, {"type": "Feature", "properties": {"id": 412970146, "name": "120동", "levels": "32"}, "geometry": {"type": "Polygon", "coordinates": [[[127.0016657, 37.503125], [127.0018875, 37.5030012], [127.0020499, 37.5031843], [127.0019542, 37.5032377], [127.0018881, 37.5031633], [127.0018292, 37.5031962], [127.0017876, 37.5031493], [127.0017205, 37.5031867], [127.0016657, 37.503125]]]}}, {"type": "Feature", "properties": {"id": 412970148, "name": "111동", "levels": "32"}, "geometry": {"type": "Polygon", "coordinates": [[[126.9975433, 37.5027057], [126.9977651, 37.5025819], [126.9979275, 37.502765], [126.9978318, 37.5028184], [126.9977657, 37.502744], [126.9977068, 37.5027769], [126.9976652, 37.50273], [126.9975981, 37.5027674], [126.9975433, 37.5027057]]]}}, {"type": "Feature", "properties": {"id": 412970149, "name": "110동", "levels": "28"}, "geometry": {"type": "Polygon", "coordinates": [[[126.9972153, 37.5024465], [126.9974726, 37.502691], [126.9973619, 37.5027643], [126.9972671, 37.5026742], [126.9971358, 37.5027613], [126.9970545, 37.5026839], [126.9971908, 37.5025937], [126.9971096, 37.5025165], [126.9972153, 37.5024465]]]}}, {"type": "Feature", "properties": {"id": 412970151, "name": "래미안퍼스티지신반포역상가", "levels": ""}, "geometry": {"type": "Polygon", "coordinates": [[[126.9954452, 37.503067], [126.9955064, 37.5029352], [126.9959464, 37.5030636], [126.9958852, 37.5031955], [126.9954452, 37.503067]]]}}, {"type": "Feature", "properties": {"id": 412970153, "name": "반포퍼스티지하늘어린이집", "levels": ""}, "geometry": {"type": "Polygon", "coordinates": [[[126.9973115, 37.5023392], [126.997286, 37.5022684], [126.9972813, 37.5021938], [126.9973021, 37.5021192], [126.9973667, 37.5020347], [126.9974723, 37.5020924], [126.9975332, 37.5021132], [126.997433, 37.502288], [126.9974875, 37.5023375], [126.997383, 37.5023761], [126.9973115, 37.5023392]]]}}, {"type": "Feature", "properties": {"id": 412970157, "name": "", "levels": ""}, "geometry": {"type": "Polygon", "coordinates": [[[126.9970765, 37.501451], [126.9972339, 37.5011386], [126.9973347, 37.5011706], [126.9971773, 37.5014829], [126.9970765, 37.501451]]]}}, {"type": "Feature", "properties": {"id": 412970158, "name": "", "levels": ""}, "geometry": {"type": "Polygon", "coordinates": [[[126.9984425, 37.5016572], [126.9986161, 37.5012812], [126.998833, 37.5013443], [126.9986594, 37.5017202], [126.9984425, 37.5016572]]]}}, {"type": "Feature", "properties": {"id": 412970161, "name": "101동", "levels": "28"}, "geometry": {"type": "Polygon", "coordinates": [[[126.996128, 37.5016175], [126.9963694, 37.5014033], [126.9966052, 37.5015704], [126.9964925, 37.5016705], [126.9963896, 37.5015975], [126.9962609, 37.5017118], [126.996128, 37.5016175]]]}}, {"type": "Feature", "properties": {"id": 412970162, "name": "102동", "levels": "27"}, "geometry": {"type": "Polygon", "coordinates": [[[126.9964134, 37.5010825], [126.9966322, 37.5009213], [126.9968222, 37.5010836], [126.9967265, 37.5011541], [126.996617, 37.5010606], [126.9964939, 37.5011513], [126.9964134, 37.5010825]]]}}, {"type": "Feature", "properties": {"id": 412970163, "name": "103동", "levels": "28"}, "geometry": {"type": "Polygon", "coordinates": [[[126.9966144, 37.5005793], [126.9968727, 37.5003681], [126.997104, 37.5005461], [126.9969889, 37.5006401], [126.9968649, 37.5005446], [126.9967215, 37.5006618], [126.9966144, 37.5005793]]]}}, {"type": "Feature", "properties": {"id": 412970164, "name": "104동", "levels": "29"}, "geometry": {"type": "Polygon", "coordinates": [[[126.9972054, 37.5006028], [126.9974242, 37.5004416], [126.9976142, 37.5006038], [126.9975185, 37.5006744], [126.997409, 37.5005809], [126.9972859, 37.5006716], [126.9972054, 37.5006028]]]}}, {"type": "Feature", "properties": {"id": 412970165, "name": "105동", "levels": "29"}, "geometry": {"type": "Polygon", "coordinates": [[[126.9966233, 37.5015909], [126.9968028, 37.501462], [126.9969576, 37.5015978], [126.9968634, 37.5016655], [126.9967912, 37.5016023], [126.996706, 37.5016634], [126.9966233, 37.5015909]]]}}, {"type": "Feature", "properties": {"id": 412970172, "name": "", "levels": ""}, "geometry": {"type": "Polygon", "coordinates": [[[126.9962505, 37.5040343], [126.9966837, 37.5041451], [126.9966145, 37.5043155], [126.9964993, 37.504286], [126.9964316, 37.5042687], [126.9961813, 37.5042046], [126.9962505, 37.5040343]]]}}, {"type": "Feature", "properties": {"id": 412970174, "name": "", "levels": ""}, "geometry": {"type": "Polygon", "coordinates": [[[126.9956632, 37.5039756], [126.9960118, 37.5041153], [126.9958752, 37.5043295], [126.9956753, 37.5042491], [126.9955268, 37.5041897], [126.9956632, 37.5039756]]]}}, {"type": "Feature", "properties": {"id": 412970176, "name": "래미안퍼스티지중심상가", "levels": ""}, "geometry": {"type": "Polygon", "coordinates": [[[127.0002779, 37.5044685], [127.0003586, 37.5042829], [127.0008287, 37.5044116], [127.0009307, 37.5043819], [127.0012126, 37.5040006], [127.0014065, 37.5040909], [127.0013112, 37.5042198], [127.001097, 37.5045095], [127.0007697, 37.5046031], [127.0002779, 37.5044685]]]}}, {"type": "Feature", "properties": {"id": 413279995, "name": "101", "levels": "12"}, "geometry": {"type": "Polygon", "coordinates": [[[126.9952061, 37.5034218], [126.9958216, 37.5035901], [126.9957914, 37.5036597], [126.9951758, 37.5034913], [126.9952061, 37.5034218]]]}}, {"type": "Feature", "properties": {"id": 413279996, "name": "102", "levels": "12"}, "geometry": {"type": "Polygon", "coordinates": [[[126.99615, 37.5036844], [126.9970076, 37.5039275], [126.9969768, 37.5039958], [126.9961192, 37.5037528], [126.99615, 37.5036844]]]}}, {"type": "Feature", "properties": {"id": 413279997, "name": "103", "levels": "12"}, "geometry": {"type": "Polygon", "coordinates": [[[126.9971253, 37.5039639], [126.9977611, 37.5041473], [126.9977323, 37.5042101], [126.9970965, 37.5040268], [126.9971253, 37.5039639]]]}}, {"type": "Feature", "properties": {"id": 413280002, "name": "르본시티", "levels": "8"}, "geometry": {"type": "Polygon", "coordinates": [[[127.0019777, 37.5049556], [127.0021111, 37.5046256], [127.0026107, 37.5047527], [127.0024773, 37.5050826], [127.0020088, 37.5049635], [127.0019777, 37.5049556]]]}}, {"type": "Feature", "properties": {"id": 413280004, "name": "", "levels": ""}, "geometry": {"type": "Polygon", "coordinates": [[[126.9963076, 37.5043379], [126.9962155, 37.5046204], [126.9962103, 37.5046921], [126.9962242, 37.5047486], [126.9962607, 37.5048148], [126.9963319, 37.5048644], [126.9963997, 37.5048795], [126.9964622, 37.5047141], [126.9966794, 37.5047665], [126.996589, 37.5050201], [126.9970772, 37.5052199], [126.9971537, 37.5051111], [126.9967732, 37.5049608], [126.9968288, 37.5048024], [126.997211, 37.5048892], [126.9972648, 37.5047569], [126.9965091, 37.5045832], [126.9965751, 37.5043972], [126.9964689, 37.5043736], [126.9964019, 37.5043588], [126.9963076, 37.5043379]]]}}, {"type": "Feature", "properties": {"id": 413280005, "name": "", "levels": ""}, "geometry": {"type": "Polygon", "coordinates": [[[126.9964019, 37.5043588], [126.9964316, 37.5042687], [126.9964993, 37.504286], [126.9964689, 37.5043736], [126.9964019, 37.5043588]]]}}, {"type": "Feature", "properties": {"id": 413280008, "name": "", "levels": ""}, "geometry": {"type": "Polygon", "coordinates": [[[126.9956632, 37.5039756], [126.9956012, 37.503954], [126.9956655, 37.5038516], [126.9960745, 37.5040134], [126.9960118, 37.5041153], [126.9956632, 37.5039756]]]}}, {"type": "Feature", "properties": {"id": 413280009, "name": "", "levels": ""}, "geometry": {"type": "Polygon", "coordinates": [[[126.9948194, 37.504042], [126.9951309, 37.5041672], [126.9951753, 37.5040978], [126.9954172, 37.5041951], [126.9953354, 37.5043232], [126.9955681, 37.5044168], [126.9956753, 37.5042491], [126.9958752, 37.5043295], [126.9956669, 37.5046555], [126.9946808, 37.5042589], [126.9948194, 37.504042]]]}}, {"type": "Feature", "properties": {"id": 413280010, "name": "신반포교회", "levels": ""}, "geometry": {"type": "Polygon", "coordinates": [[[126.9954548, 37.5050901], [126.9956231, 37.5048415], [126.9959144, 37.5049656], [126.9957461, 37.5052142], [126.9954548, 37.5050901]]]}}, {"type": "Feature", "properties": {"id": 413280011, "name": "구반포치안센터", "levels": ""}, "geometry": {"type": "Polygon", "coordinates": [[[126.9945203, 37.5044551], [126.9946027, 37.5044909], [126.9946423, 37.5044335], [126.9945599, 37.5043977], [126.9945203, 37.5044551]]]}}, {"type": "Feature", "properties": {"id": 413280012, "name": "반포2동 주민센터", "levels": "3"}, "geometry": {"type": "Polygon", "coordinates": [[[126.9944031, 37.5046126], [126.9944999, 37.504479], [126.9946174, 37.5045325], [126.9945207, 37.5046662], [126.9944031, 37.5046126]]]}}, {"type": "Feature", "properties": {"id": 413280013, "name": "서울반포우체국", "levels": ""}, "geometry": {"type": "Polygon", "coordinates": [[[126.9986223, 37.5046579], [126.9987055, 37.5044767], [126.9988478, 37.5045178], [126.9987646, 37.504699], [126.9986223, 37.5046579]]]}}, {"type": "Feature", "properties": {"id": 413280015, "name": "반포성당", "levels": ""}, "geometry": {"type": "Polygon", "coordinates": [[[126.9944544, 37.5050209], [126.9944598, 37.5049028], [126.9946341, 37.5048496], [126.9946772, 37.5047928], [126.9947962, 37.5048498], [126.9947494, 37.5049113], [126.9947575, 37.5050155], [126.9946167, 37.5050911], [126.9944544, 37.5050209]]]}}, {"type": "Feature", "properties": {"id": 413280017, "name": "남서울교회", "levels": ""}, "geometry": {"type": "Polygon", "coordinates": [[[126.9949331, 37.5045398], [126.9947984, 37.5047269], [126.9948186, 37.5047886], [126.9951494, 37.5049451], [126.9951996, 37.5048782], [126.9950858, 37.5048244], [126.9951726, 37.5047088], [126.9951646, 37.504679], [126.9949506, 37.5045821], [126.9949693, 37.5045562], [126.9949331, 37.5045398]]]}}, {"type": "Feature", "properties": {"id": 476444554, "name": "반포 효성빌딩", "levels": "20"}, "geometry": {"type": "Polygon", "coordinates": [[[127.002936, 37.5009544], [127.0033873, 37.5010102], [127.0034573, 37.500705], [127.0034024, 37.5006969], [127.0034497, 37.5004811], [127.0035957, 37.5004417], [127.0036298, 37.5002582], [127.003653, 37.500257], [127.0036714, 37.5001699], [127.0035821, 37.5001868], [127.0032281, 37.5004484], [127.0032054, 37.5004367], [127.002936, 37.5006459], [127.003008, 37.5006641], [127.002936, 37.5009544]]]}}, {"type": "Feature", "properties": {"id": 499492012, "name": "123동", "levels": "26"}, "geometry": {"type": "Polygon", "coordinates": [[[127.0008245, 37.5022837], [127.0008548, 37.5023328], [127.0008426, 37.5023375], [127.0008778, 37.5023945], [127.0010616, 37.5023231], [127.0011989, 37.5025456], [127.0012733, 37.5025167], [127.0012649, 37.502503], [127.0013173, 37.5024827], [127.001185, 37.5022684], [127.0013549, 37.5022024], [127.0013222, 37.5021494], [127.0013092, 37.5021544], [127.0012798, 37.5021069], [127.0008245, 37.5022837]]]}}, {"type": "Feature", "properties": {"id": 499492013, "name": "122동", "levels": "26"}, "geometry": {"type": "Polygon", "coordinates": [[[127.0000469, 37.5019925], [127.0000772, 37.5020415], [127.000065, 37.5020462], [127.0000987, 37.5021008], [127.0002825, 37.5020294], [127.0004214, 37.5022545], [127.000496, 37.5022255], [127.0004875, 37.5022118], [127.0005399, 37.5021915], [127.0004077, 37.5019772], [127.0005775, 37.5019112], [127.0005447, 37.5018581], [127.0005317, 37.5018631], [127.0005024, 37.5018156], [127.0000469, 37.5019925]]]}}, {"type": "Feature", "properties": {"id": 499492014, "name": "121동", "levels": "26"}, "geometry": {"type": "Polygon", "coordinates": [[[126.9992372, 37.5016932], [126.9992678, 37.5017424], [126.9992557, 37.5017471], [126.9992888, 37.5018002], [126.9994657, 37.5017308], [126.9996073, 37.5019578], [126.9996871, 37.5019265], [126.9996785, 37.5019128], [126.9997306, 37.5018923], [126.9995967, 37.5016776], [126.9997655, 37.5016113], [126.9997321, 37.5015579], [126.9997191, 37.501563], [126.9996896, 37.5015157], [126.9992372, 37.5016932]]]}}, {"type": "Feature", "properties": {"id": 600778420, "name": "현대동궁아파트", "levels": "15"}, "geometry": {"type": "Polygon", "coordinates": [[[127.0013794, 37.5002524], [127.0014381, 37.5001571], [127.0015185, 37.5001882], [127.0015382, 37.5001562], [127.0016944, 37.5002168], [127.0016711, 37.5002545], [127.001792, 37.5003013], [127.0018104, 37.5002715], [127.0018832, 37.5002998], [127.0019097, 37.5002568], [127.002028, 37.5003027], [127.0020018, 37.5003451], [127.0021127, 37.5003882], [127.0021388, 37.5003459], [127.002217, 37.5003763], [127.0022372, 37.5003435], [127.0023602, 37.5003913], [127.0023386, 37.5004263], [127.0024293, 37.5004616], [127.002464, 37.5004054], [127.0025223, 37.500428], [127.0024966, 37.5004696], [127.0025385, 37.5004859], [127.0025665, 37.5004407], [127.0027622, 37.5005168], [127.0026902, 37.5006335], [127.002511, 37.5005638], [127.0024946, 37.5005904], [127.002421, 37.5005619], [127.0024424, 37.5005273], [127.0024005, 37.500511], [127.0023634, 37.500571], [127.0021668, 37.5004946], [127.0021872, 37.5004615], [127.0021516, 37.5004476], [127.0021359, 37.500473], [127.0020532, 37.5004408], [127.0020333, 37.5004731], [127.0019471, 37.5004396], [127.0019635, 37.500413], [127.001933, 37.5004012], [127.0019121, 37.5004351], [127.0018357, 37.5004055], [127.0018549, 37.5003743], [127.0018343, 37.5003663], [127.0018164, 37.5003954], [127.0017409, 37.5003661], [127.0017222, 37.5003964], [127.0016149, 37.5003548], [127.0016296, 37.5003309], [127.0016018, 37.5003202], [127.0015879, 37.5003428], [127.0014965, 37.5003074], [127.0015159, 37.5002757], [127.0014658, 37.5002563], [127.0014511, 37.5002802], [127.0013794, 37.5002524]]]}}, {"type": "Feature", "properties": {"id": 601356623, "name": "", "levels": ""}, "geometry": {"type": "Polygon", "coordinates": [[[127.0022521, 37.5046458], [127.0022749, 37.5045992], [127.0022521, 37.5045811], [127.0022294, 37.5045601], [127.0022142, 37.5045315], [127.0022161, 37.5044984], [127.0022351, 37.5044728], [127.0022559, 37.5044562], [127.0022901, 37.5044412], [127.002328, 37.5044292], [127.0023602, 37.5044216], [127.0023887, 37.504384], [127.0031113, 37.5045901], [127.003098, 37.5046202], [127.0031246, 37.5046503], [127.0031473, 37.5046744], [127.0031625, 37.5047105], [127.0031568, 37.5047346], [127.0031454, 37.5047587], [127.0031341, 37.5047827], [127.0030942, 37.5048083], [127.0030487, 37.5048173], [127.0029804, 37.5048264], [127.0029768, 37.5048357], [127.0029548, 37.5048862], [127.0028066, 37.5048479], [127.0027718, 37.5047903], [127.0022521, 37.5046458]]]}}, {"type": "Feature", "properties": {"id": 859995980, "name": "궁전빌딩", "levels": ""}, "geometry": {"type": "Polygon", "coordinates": [[[127.0005779, 37.5007501], [127.0006486, 37.5006389], [127.000828, 37.5007106], [127.0007574, 37.5008219], [127.0005779, 37.5007501]]]}}, {"type": "Feature", "properties": {"id": 859995985, "name": "서래한신상가", "levels": ""}, "geometry": {"type": "Polygon", "coordinates": [[[126.9999698, 37.4999987], [126.9999769, 37.4998532], [127.0001349, 37.499858], [127.0001697, 37.4998784], [127.0001672, 37.499931], [127.0002047, 37.4999321], [127.0002011, 37.5000058], [126.9999698, 37.4999987]]]}}, {"type": "Feature", "properties": {"id": 859995986, "name": "대륭빌딩", "levels": ""}, "geometry": {"type": "Polygon", "coordinates": [[[126.9992508, 37.5002246], [126.9993304, 37.5001029], [126.9992784, 37.5000814], [126.9992961, 37.5000543], [126.9993435, 37.5000738], [126.999366, 37.5000394], [126.9992495, 37.4999914], [126.9992938, 37.4999236], [126.9994671, 37.4999951], [126.9994031, 37.5000927], [126.9994342, 37.5001056], [126.9994113, 37.5001405], [126.9993933, 37.500133], [126.9993905, 37.5001371], [126.99948, 37.500174], [126.9995177, 37.5002863], [126.9994929, 37.5003243], [126.9992508, 37.5002246]]]}}, {"type": "Feature", "properties": {"id": 859995989, "name": "", "levels": ""}, "geometry": {"type": "Polygon", "coordinates": [[[126.9988228, 37.5000456], [126.9988777, 37.4999586], [126.9990859, 37.5000414], [126.999031, 37.5001284], [126.9988228, 37.5000456]]]}}, {"type": "Feature", "properties": {"id": 1173096802, "name": "", "levels": ""}, "geometry": {"type": "Polygon", "coordinates": [[[127.0021704, 37.5040481], [127.0022214, 37.5039481], [127.0024252, 37.5036885], [127.002613, 37.5037417], [127.002562, 37.5038268], [127.0024199, 37.5039885], [127.0023555, 37.5041013], [127.0021704, 37.5040481]]]}}, {"type": "Feature", "properties": {"id": 1173096803, "name": "", "levels": ""}, "geometry": {"type": "Polygon", "coordinates": [[[127.0026737, 37.5035332], [127.002811, 37.50357], [127.0027749, 37.5036548], [127.0026376, 37.503618], [127.0026737, 37.5035332]]]}}, {"type": "Feature", "properties": {"id": 1173096804, "name": "", "levels": ""}, "geometry": {"type": "Polygon", "coordinates": [[[127.0026852, 37.5042664], [127.0027546, 37.5040992], [127.0029205, 37.5041425], [127.0028511, 37.5043097], [127.0026852, 37.5042664]]]}}, {"type": "Feature", "properties": {"id": 1173096805, "name": "", "levels": ""}, "geometry": {"type": "Polygon", "coordinates": [[[127.0029248, 37.5043327], [127.0032026, 37.503729], [127.0035832, 37.5038438], [127.0032983, 37.5044421], [127.0030928, 37.5043829], [127.0029248, 37.5043327]]]}}, {"type": "Feature", "properties": {"id": 1173096806, "name": "", "levels": ""}, "geometry": {"type": "Polygon", "coordinates": [[[127.0018384, 37.5046843], [127.0017073, 37.5046482], [127.0017662, 37.5045136], [127.0018973, 37.5045497], [127.0018384, 37.5046843]]]}}, {"type": "Feature", "properties": {"id": 1177226165, "name": "원베일리 스퀘어", "levels": ""}, "geometry": {"type": "Polygon", "coordinates": [[[126.9988955, 37.5049665], [127.0000211, 37.5053081], [127.0000721, 37.5052022], [126.9999295, 37.505159], [126.9999988, 37.5050152], [127.0002109, 37.5050795], [127.0002627, 37.504972], [126.9990062, 37.504591], [126.9989222, 37.5047653], [126.9989835, 37.5047839], [126.9988955, 37.5049665]]]}}, {"type": "Feature", "properties": {"id": 1177226180, "name": "111동", "levels": "16"}, "geometry": {"type": "Polygon", "coordinates": [[[126.9978791, 37.5048415], [126.9976627, 37.505154], [126.9977358, 37.5051859], [126.9977745, 37.50513], [126.9977958, 37.5051392], [126.9978391, 37.5050767], [126.9978203, 37.5050749], [126.9978816, 37.504986], [126.997863, 37.504978], [126.9979028, 37.5049204], [126.9980133, 37.5049684], [126.9980048, 37.5049807], [126.9980727, 37.5050102], [126.9980804, 37.5049991], [126.9981413, 37.5050256], [126.9981238, 37.5050509], [126.9982124, 37.5050894], [126.9982775, 37.5049951], [126.9981225, 37.5049277], [126.9981322, 37.5049137], [126.9980621, 37.5048832], [126.9980509, 37.5048994], [126.9979835, 37.5048701], [126.9979745, 37.5048831], [126.9978791, 37.5048415]]]}}, {"type": "Feature", "properties": {"id": 1254291728, "name": "남서울교회 비전센터", "levels": ""}, "geometry": {"type": "Polygon", "coordinates": [[[126.9985188, 37.5044203], [126.9986772, 37.504466], [126.9986066, 37.5046202], [126.9984482, 37.5045745], [126.9985188, 37.5044203]]]}}, {"type": "Feature", "properties": {"id": 1280610364, "name": "", "levels": ""}, "geometry": {"type": "Polygon", "coordinates": [[[127.0007953, 37.5008391], [127.0009681, 37.5005556], [127.0010277, 37.5005784], [127.0010394, 37.5005976], [127.0008927, 37.5008444], [127.0008552, 37.5008621], [127.0007953, 37.5008391]]]}}, {"type": "Feature", "properties": {"id": 1354860678, "name": "고속터미널 지하상가", "levels": ""}, "geometry": {"type": "Polygon", "coordinates": [[[127.0089112, 37.5071928], [127.0092817, 37.5072941], [127.0091183, 37.5076077], [127.0087478, 37.507504], [127.0087727, 37.5074558], [127.0071444, 37.5069631], [127.0052858, 37.5064074], [127.0045152, 37.5061839], [127.0025881, 37.5056146], [127.0014642, 37.5052763], [127.0012416, 37.5053034], [127.0008088, 37.5051528], [127.0007808, 37.5049836], [127.0009038, 37.5047897], [127.0010501, 37.5047453], [127.0013365, 37.5048638], [127.0013544, 37.5049051], [127.0013762, 37.5049554], [127.0029006, 37.5054302], [127.0043167, 37.5058804], [127.0061361, 37.5064155], [127.0088881, 37.5072363], [127.0089112, 37.5071928]]]}}, {"type": "Feature", "properties": {"id": 1424065414, "name": "", "levels": ""}, "geometry": {"type": "Polygon", "coordinates": [[[126.995572, 37.5000194], [126.9956213, 37.4999289], [126.9956876, 37.4999497], [126.9956383, 37.5000414], [126.995572, 37.5000194]]]}}, {"type": "Feature", "properties": {"id": 1461455319, "name": "", "levels": ""}, "geometry": {"type": "Polygon", "coordinates": [[[126.9986267, 37.5047296], [126.998542, 37.504905], [126.9982383, 37.5048139], [126.9982233, 37.5048386], [126.998057, 37.5047892], [126.9980677, 37.5047671], [126.9979304, 37.5047279], [126.9980549, 37.5045671], [126.9986267, 37.5047296]]]}}, {"type": "Feature", "properties": {"id": 1461455320, "name": "반포2동 주민센터", "levels": ""}, "geometry": {"type": "Polygon", "coordinates": [[[126.9980867, 37.504522], [126.9982101, 37.5043432], [126.9984933, 37.5044292], [126.9984086, 37.5046122], [126.9980867, 37.504522]]]}}]}